ONEWEB-0158             
1 48054U 21025N   26168.96627084  .00000010  00000+0 -83658-5 0  9992
2 48054  87.8963 320.0617 0001585  96.0575 264.0735 13.13470974253730
ONEWEB-0157             
1 48055U 21025P   26168.83931161 -.00000269  00000+0 -77061-3 0  9999
2 48055  87.8959 320.0928 0002105 106.1379 253.9982 13.13470366253652
ONEWEB-0162             
1 48056U 21025Q   26168.96782597 -.00000015  00000+0 -77133-4 0  9991
2 48056  87.8959 320.0678 0001965  93.9028 266.2326 13.13469292253646
ONEWEB-0155             
1 48057U 21025R   26168.97472869 -.00000186  00000+0 -54443-3 0  9998
2 48057  87.8959 320.0625 0001820 102.3487 257.7846 13.13469788253780
ONEWEB-0149             
1 48058U 21025S   26168.92056494 -.00000189  00000+0 -55340-3 0  9996
2 48058  87.8961 320.0772 0002026  93.6168 266.5193 13.13470280253584
ONEWEB-0148             
1 48059U 21025T   26168.95949880  .00000179  00000+0  45424-3 0  9999
2 48059  87.8955 320.0762 0002403  92.2771 267.8633 13.13469731253718
ONEWEB-0160             
1 48060U 21025U   26168.97641705 -.00000273  00000+0 -78335-3 0  9992
2 48060  87.8955 320.0687 0001377  75.8150 284.3132 13.13470636253661
ONEWEB-0163             
1 48061U 21025V   26168.96118184  .00000119  00000+0  29015-3 0  9990
2 48061  87.8962 320.0664 0001990 104.0430 256.0921 13.13470463253785
ONEWEB-0159             
1 48062U 21025W   26168.95272297  .00000271  00000+0  70762-3 0  9990
2 48062  87.8964 320.0617 0001933 103.8539 256.2806 13.13470148253706
ONEWEB-0164             
1 48063U 21025X   26168.93410215  .00000146  00000+0  36585-3 0  9999
2 48063  87.8965 320.0719 0001786  96.1364 263.9968 13.13470511253682
ONEWEB-0167             
1 48064U 21025Y   26168.96202719  .00000141  00000+0  35123-3 0  9993
2 48064  87.8954 320.0759 0001759 118.2757 241.8549 13.13468116253674
ONEWEB-0166             
1 48065U 21025Z   26168.98488751 -.00001488  00000+0 -41100-2 0  9996
2 48065  87.8962 320.0426 0002026  95.7192 264.4168 13.13458336253755
ONEWEB-0151             
1 48066U 21025AA  26168.98657099 -.00000280  00000+0 -80141-3 0  9998
2 48066  87.8956 320.0592 0001761 100.4120 259.7208 13.13470602253698
ONEWEB-0170             
1 48067U 21025AB  26168.91886245 -.00000210  00000+0 -61118-3 0  9995
2 48067  87.8958 320.0748 0001373  97.4721 262.6564 13.13470723253642
ONEWEB-0168             
1 48068U 21025AC  26168.97980421 -.00000318  00000+0 -90646-3 0  9990
2 48068  87.8964 320.0623 0001987 100.6981 259.4372 13.13470050253664
ONEWEB-0173             
1 48069U 21025AD  26168.97134309 -.00000154  00000+0 -45604-3 0  9999
2 48069  87.8958 320.0657 0001971 107.9801 252.1543 13.13469713253900
ONEWEB-0171             
1 48070U 21025AE  26168.93241016  .00000010  00000+0 -82864-5 0  9992
2 48070  87.8954 320.0818 0001767  98.7399 261.3930 13.13470426253713
ONEWEB-0172             
1 48071U 21025AF  26168.91208387 -.00000481  00000+0 -13520-2 0  9998
2 48071  87.8960 320.0758 0001800 102.7459 257.3872 13.13469656254607
ONEWEB-0174             
1 48072U 21025AG  26168.96965637 -.00000111  00000+0 -33919-3 0  9997
2 48072  87.8959 320.0633 0001993  96.4046 263.7310 13.13469936253936
ONEWEB-0175             
1 48073U 21025AH  26168.92394590 -.00000140  00000+0 -41760-3 0  9993
2 48073  87.8965 320.0570 0001551 103.8013 256.3289 13.13470836253586
ONEWEB-0177             
1 48074U 21025AJ  26168.93579159  .00000196  00000+0  50187-3 0  9993
2 48074  87.8960 320.0731 0002058 100.1418 259.9944 13.13471387253773
ONEWEB-0178             
1 48075U 21025AK  26168.95455110  .00000308  00000+0  80980-3 0  9995
2 48075  87.8948 320.0818 0001739 105.0629 255.0692 13.13467976253821
ONEWEB-0108             
1 48076U 21025AL  26168.91378472 -.00000241  00000+0 -69508-3 0  9998
2 48076  87.8962 320.0689 0001897  90.2451 269.8896 13.13470238253742
ONEWEB-0169             
1 48077U 21025AM  26168.94595431  .00000337  00000+0  88659-3 0  9990
2 48077  87.8957 320.0703 0001941  95.8823 264.2527 13.13469862252401
ONEWEB-0176             
1 48210U 21031A   26169.32076001  .00000242  00000+0  61769-3 0  9994
2 48210  87.8964 289.4732 0001906 104.2895 255.8446 13.14503517248467
ONEWEB-0184             
1 48211U 21031B   26169.29379552 -.00000086  00000+0 -26778-3 0  9997
2 48211  87.8975 289.4792 0001611 126.6755 233.4523 13.14502928248432
ONEWEB-0179             
1 48212U 21031C   26169.28824355  .00000172  00000+0  51282-4 0  9996
2 48212  87.8990 286.7071 0218724 253.5771 104.1282 14.25523838249201
ONEWEB-0180             
1 48213U 21031D   26168.84026417 -.00000130  00000+0 -38414-3 0  9998
2 48213  87.8972 289.5659 0002230 110.8972 249.2397 13.14503530248308
ONEWEB-0218             
1 48214U 21031E   26169.31917564  .00000800  00000+0  21225-2 0  9997
2 48214  87.8971 289.4699 0002187 136.6713 223.4589 13.14500742248524
ONEWEB-0209             
1 48215U 21031F   26168.85135769  .00000091  00000+0  21076-3 0  9992
2 48215  87.8966 289.5797 0002127 104.8014 255.3352 13.14502146248469
